NORAD_CAT_ID,OBJECT_NAME,OBJECT_TYPE,EPOCH,MEAN_MOTION,ECCENTRICITY,INCLINATION,RA_OF_ASC_NODE,ARG_OF_PERICENTER,MEAN_ANOMALY,BSTAR,MEAN_MOTION_DOT,MEAN_MOTION_DDOT,TLE_LINE0,TLE_LINE1,TLE_LINE2,SEMIMAJOR_AXIS,PERIOD,APOGEE,PERIGEE,DECAYED
55296.0,STARLINK-5285,PAYLOAD,2023-06-03 11:07:30,15.25182402,0.0002778,69.9985,52.1212,283.8713,76.215,-0.010723,-0.00260625,0.0,0 STARLINK-5285,1 55296U 23010AD  23154.46355207 -.00260625  00000-0 -10723-1 0  9997,2 55296  69.9985  52.1212 0002778 283.8713  76.2150 15.25182402 22818,6868.375,94.415,492.148,488.332,0.0
55296.0,STARLINK-5285,PAYLOAD,2023-06-03 20:35:08,15.24143584,0.0003034,69.9993,51.0958,259.861,100.222,-0.010014,-0.00236721,0.0,0 STARLINK-5285,1 55296U 23010AD  23154.85774089 -.00236721  00000-0 -10014-1 0  9996,2 55296  69.9993  51.0958 0003034 259.8610 100.2220 15.24143584 22876,6871.495,94.479,495.445,491.275,0.0
55296.0,STARLINK-5285,PAYLOAD,2023-06-03 22:00:00,15.22434756,0.0003344,70.0022,50.9372,270.8636,55.5961,-0.042657,-0.00917252,0.0,0 STARLINK-5285,1 55296U 23010AD  23154.91667824 -.00917252  00000-0 -42657-1 0  9994,2 55296  70.0022  50.9372 0003344 270.8636  55.5961 15.22434756 21690,6876.636,94.585,500.801,496.202,0.0
55296.0,STARLINK-5285,PAYLOAD,2023-06-04 16:00:00,15.20975783,0.0003204,70.0006,48.9781,269.4378,204.4307,-0.044626,-0.00919021,0.0,0 STARLINK-5285,1 55296U 23010AD  23155.66667824 -.00919021  00000-0 -44626-1 0  9991,2 55296  70.0006  48.9781 0003204 269.4378 204.4307 15.20975783  1308,6881.033,94.676,505.103,500.693,0.0
55296.0,STARLINK-5285,PAYLOAD,2023-06-04 20:15:08,15.22219188,0.0003115,69.9992,48.5195,261.9649,98.1169,-0.010804,-0.00241093,0.0,0 STARLINK-5285,1 55296U 23010AD  23155.84384442 -.00241093  00000-0 -10804-1 0  9991,2 55296  69.9992  48.5195 0003115 261.9649  98.1169 15.22219188 23022,6877.285,94.599,501.293,497.008,0.0
55296.0,STARLINK-5285,PAYLOAD,2023-06-04 22:00:00,15.20477672,0.000331,70.0018,48.3243,272.555,129.5766,-0.045153,-0.00916598,0.0,0 STARLINK-5285,1 55296U 23010AD  23155.91667824 -.00916598  00000-0 -45153-1 0  9991,2 55296  70.0018  48.3243 0003310 272.5550 129.5766 15.20477672 21844,6882.536,94.707,506.679,502.123,0.0
55296.0,STARLINK-5285,PAYLOAD,2023-06-05 14:00:01,15.19164208,0.0003216,70.0017,46.5862,269.1758,179.5506,-0.04479,-0.00877872,0.0,0 STARLINK-5285,1 55296U 23010AD  23156.58335648 -.00877872  00000-0 -44790-1 0  9998,2 55296  70.0017  46.5862 0003216 269.1758 179.5506 15.19164208  1309,6886.502,94.789,510.582,506.153,0.0
55296.0,STARLINK-5285,PAYLOAD,2023-06-05 22:00:00,15.18515221,0.0003241,70.0017,45.7187,273.2096,197.556,-0.047307,-0.00907658,0.0,0 STARLINK-5285,1 55296U 23010AD  23156.91667824 -.00907658  00000-0 -47307-1 0  9992,2 55296  70.0017  45.7187 0003241 273.2096 197.5560 15.18515221 22003,6888.464,94.829,512.562,508.097,0.0
55296.0,STARLINK-5285,PAYLOAD,2023-06-06 00:00:00,15.18339627,0.0003144,70.0016,45.5018,273.7573,292.4097,-0.045795,-0.00876463,0.0,0 STARLINK-5285,1 55296U 23010AD  23157.00001157 -.00876463  00000-0 -45795-1 0  9992,2 55296  70.0016  45.5018 0003144 273.7573 292.4097 15.18339627  1304,6888.995,94.84,513.026,508.694,0.0
55296.0,STARLINK-5285,PAYLOAD,2023-06-06 14:00:01,15.17213677,0.0003099,70.0014,43.986,268.0783,244.5205,-0.048017,-0.0088872,0.0,0 STARLINK-5285,1 55296U 23010AD  23157.58334491 -.00888720  00000-0 -48017-1 0  9994,2 55296  70.0014  43.9860 0003099 268.0783 244.5205 15.17213677  1302,6892.403,94.911,516.404,512.132,0.0
55296.0,STARLINK-5285,PAYLOAD,2023-06-06 20:00:01,15.16751552,0.0003254,70.0016,43.3371,271.3405,166.1424,-0.052542,-0.009544,0.0,0 STARLINK-5285,1 55296U 23010AD  23157.83334491 -.00954400  00000-0 -52542-1 0  9999,2 55296  70.0016  43.3371 0003254 271.3405 166.1424 15.16751552 22141,6893.803,94.94,517.911,513.425,0.0
55296.0,STARLINK-5285,PAYLOAD,2023-06-06 22:00:00,15.16553618,0.0003169,70.0015,43.1209,272.3471,260.0112,-0.049536,-0.00898884,0.0,0 STARLINK-5285,1 55296U 23010AD  23157.91667824 -.00898884  00000-0 -49536-1 0  9999,2 55296  70.0015  43.1209 0003169 272.3471 260.0112 15.16553618  1303,6894.403,94.952,518.453,514.083,0.0
55296.0,STARLINK-5285,PAYLOAD,2023-06-07 14:00:01,15.15261462,0.0003092,70.0012,41.3933,266.0974,303.3975,-0.051241,-0.00896348,0.0,0 STARLINK-5285,1 55296U 23010AD  23158.58334491 -.00896348  00000-0 -51241-1 0  9993,2 55296  70.0012  41.3933 0003092 266.0974 303.3975 15.15261462 22254,6898.322,95.033,522.32,518.054,0.0
55296.0,STARLINK-5285,PAYLOAD,2023-06-07 22:00:00,15.14592176,0.0003182,70.0014,40.5308,272.25,314.66,-0.051792,-0.00889476,0.0,0 STARLINK-5285,1 55296U 23010AD  23158.91667824 -.00889476  00000-0 -51792-1 0  9994,2 55296  70.0014  40.5308 0003182 272.2500 314.6600 15.14592176  1308,6900.354,95.075,524.415,520.023,0.0
55296.0,STARLINK-5285,PAYLOAD,2023-06-08 06:00:00,15.13997912,0.0003145,70.0011,39.6691,274.2034,329.3039,-0.058479,-0.00980028,0.0,0 STARLINK-5285,1 55296U 23010AD  23159.25001157 -.00980028  00000-0 -58479-1 0  9997,2 55296  70.0011  39.6691 0003145 274.2034 329.3039 15.13997912 22355,6902.159,95.112,526.195,521.854,0.0
55296.0,STARLINK-5285,PAYLOAD,2023-06-08 14:00:01,15.13309304,0.0003156,70.0013,38.8084,267.9115,351.4387,-0.054541,-0.0090239,0.0,0 STARLINK-5285,1 55296U 23010AD  23159.58334491 -.00902390  00000-0 -54541-1 0  9995,2 55296  70.0013  38.8084 0003156 267.9115 351.4387 15.13309304 22405,6904.253,95.156,528.297,523.939,0.0
55296.0,STARLINK-5285,PAYLOAD,2023-06-08 22:00:00,15.12630786,0.0003213,70.0015,37.9486,272.6016,1.8202,-0.05419,-0.00881255,0.0,0 STARLINK-5285,1 55296U 23010AD  23159.91667824 -.00881255  00000-0 -54190-1 0  9997,2 55296  70.0015  37.9486 0003213 272.6016   1.8202 15.12630786  1308,6906.318,95.198,530.402,525.964,0.0
55296.0,STARLINK-5285,PAYLOAD,2023-06-09 06:00:00,15.12040551,0.0003194,70.0012,37.0895,273.6548,15.0166,-0.061842,-0.00980872,0.0,0 STARLINK-5285,1 55296U 23010AD  23160.25001157 -.00980872  00000-0 -61842-1 0  9994,2 55296  70.0012  37.0895 0003194 273.6548  15.0166 15.12040551 22505,6908.115,95.236,532.186,527.773,0.0
55296.0,STARLINK-5285,PAYLOAD,2023-06-09 14:00:01,15.11355187,0.0003206,70.0015,36.2314,267.7165,34.4493,-0.057904,-0.00906737,0.0,0 STARLINK-5285,1 55296U 23010AD  23160.58334491 -.00906737  00000-0 -57904-1 0  9992,2 55296  70.0015  36.2314 0003206 267.7165  34.4493 15.11355187 22554,6910.203,95.279,534.284,529.853,0.0
55296.0,STARLINK-5285,PAYLOAD,2023-06-09 22:00:00,15.10622499,0.0003147,70.0017,35.3743,272.9309,41.9705,-0.048708,-0.0074899,0.0,0 STARLINK-5285,1 55296U 23010AD  23160.91667824 -.00748990  00000-0 -48708-1 0  9995,2 55296  70.0017  35.3743 0003147 272.9309  41.9705 15.10622499  1305,6912.437,95.325,536.478,532.127,0.0
55296.0,STARLINK-5285,PAYLOAD,2023-06-10 06:00:02,15.10083332,0.0003245,70.0015,34.5178,273.8481,53.0095,-0.065322,-0.00981184,0.0,0 STARLINK-5285,1 55296U 23010AD  23161.25002315 -.00981184  00000-0 -65322-1 0  9996,2 55296  70.0015  34.5178 0003245 273.8481  53.0095 15.10083332 22650,6914.083,95.359,538.191,533.704,0.0
55296.0,STARLINK-5285,PAYLOAD,2023-06-10 14:00:01,15.09402124,0.0003236,70.0019,33.6625,268.1747,69.7658,-0.061535,-0.00912438,0.0,0 STARLINK-5285,1 55296U 23010AD  23161.58334491 -.00912438  00000-0 -61535-1 0  9993,2 55296  70.0019  33.6625 0003236 268.1747  69.7658 15.09402124 22700,6916.163,95.402,540.266,535.79,0.0
55296.0,STARLINK-5285,PAYLOAD,2023-06-10 22:00:00,15.08715889,0.0003264,70.002,32.8079,273.2554,75.0642,-0.059987,-0.0087562,0.0,0 STARLINK-5285,1 55296U 23010AD  23161.91667824 -.00875620  00000-0 -59987-1 0  9998,2 55296  70.0020  32.8079 0003264 273.2554  75.0642 15.08715889  1300,6918.26,95.445,542.383,537.867,0.0
55296.0,STARLINK-5285,PAYLOAD,2023-06-11 06:00:00,15.08124928,0.0003259,70.0019,31.9541,274.191,83.6868,-0.068799,-0.00979362,0.0,0 STARLINK-5285,1 55296U 23010AD  23162.25001157 -.00979362  00000-0 -68799-1 0  9996,2 55296  70.0019  31.9541 0003259 274.1910  83.6868 15.08124928 22803,6920.067,95.483,544.187,539.677,0.0
55296.0,STARLINK-5285,PAYLOAD,2023-06-11 14:00:01,15.07449046,0.0003261,70.0022,31.1014,268.9136,97.7614,-0.065404,-0.00918776,0.0,0 STARLINK-5285,1 55296U 23010AD  23162.58334491 -.00918776  00000-0 -65404-1 0  9994,2 55296  70.0022  31.1014 0003261 268.9136  97.7614 15.07449046 22858,6922.135,95.526,546.258,541.743,0.0
55296.0,STARLINK-5285,PAYLOAD,2023-06-11 22:00:00,15.0675698,0.000328,70.0022,30.2494,273.9704,100.7381,-0.062924,-0.00871017,0.0,0 STARLINK-5285,1 55296U 23010AD  23162.91667824 -.00871017  00000-0 -62924-1 0  9990,2 55296  70.0022  30.2494 0003280 273.9704 100.7381 15.06756980  1308,6924.255,95.569,548.391,543.849,0.0
55296.0,STARLINK-5285,PAYLOAD,2023-06-12 14:00:01,15.0549497,0.0003247,70.0025,28.5482,269.5323,118.8996,-0.069353,-0.00923574,0.0,0 STARLINK-5285,1 55296U 23010AD  23163.58335648 -.00923574  00000-0 -69353-1 0  9999,2 55296  70.0025  28.5482 0003247 269.5323 118.8996 15.05494970 23009,6928.124,95.65,552.238,547.739,0.0
55296.0,STARLINK-5285,PAYLOAD,2023-06-13 00:00:00,15.04643679,0.000313,70.0025,27.4867,276.813,208.5312,-0.066451,-0.00868943,0.0,0 STARLINK-5285,1 55296U 23010AD  23164.00001157 -.00868943  00000-0 -66451-1 0  9996,2 55296  70.0025  27.4867 0003130 276.8130 208.5312 15.04643679  1301,6930.737,95.704,554.771,550.432,0.0
55296.0,STARLINK-5285,PAYLOAD,2023-06-13 14:00:01,15.03539931,0.0003242,70.0025,26.003,270.1092,132.9139,-0.073385,-0.00927011,0.0,0 STARLINK-5285,1 55296U 23010AD  23164.58334491 -.00927011  00000-0 -73385-1 0  9995,2 55296  70.0025  26.0030 0003242 270.1092 132.9139 15.03539931 23165,6934.128,95.774,558.241,553.745,0.0
55296.0,STARLINK-5285,PAYLOAD,2023-06-13 22:00:00,15.02844254,0.0003298,70.0024,25.1562,275.4722,130.8904,-0.069784,-0.00869639,0.0,0 STARLINK-5285,1 55296U 23010AD  23164.91667824 -.00869639  00000-0 -69784-1 0  9990,2 55296  70.0024  25.1562 0003298 275.4722 130.8904 15.02844254  1308,6936.268,95.818,560.42,555.845,0.0
